ASIASAT 5               
1 35696U 09042A   16063.00257544 -.00000317  00000-0  00000+0 0  9998
2 35696   0.0333 286.4145 0002122  24.0556 312.1568  1.00272730 23989
JCSAT-RA (JCSAT-12)     
1 35755U 09044A   16062.19908006 -.00000354  00000-0  00000+0 0  9992
2 35755   0.0612  53.7463 0001010 270.5246  35.7047  1.00277650 23977
OPTUS D3                
1 35756U 09044B   16062.41014589 -.00000157  00000-0  00000+0 0  9993
2 35756   0.0510 327.4596 0004361  23.8887 112.9252  1.00272314 23940
PALAPA D                
1 35812U 09046A   16063.53337594  .00000000  00000-0  10000-3 0  9997
2 35812   0.0300  84.6856 0003307 318.6157  63.2878  1.00263063 23993
NIMIQ 5                 
1 35873U 09050A   16063.35583185 -.00000267  00000-0  00000+0 0  9999
2 35873   0.0543 274.4592 0001811  70.5631 231.9029  1.00270861 23675
AMAZONAS 2              
1 35942U 09054A   16063.48075454 -.00000293  00000-0  00000+0 0  9998
2 35942   0.0236 159.4209 0001060 241.0435 233.3013  1.00272797 23513
COMSATBW-1              
1 35943U 09054B   16062.78335331  .00000015  00000-0  00000+0 0  9995
2 35943   0.0490  80.2433 0002355 274.3136 151.4118  1.00271566 23576
NSS-12                  
1 36032U 09058A   16062.39552461  .00000062  00000-0  00000+0 0  9993
2 36032   0.0375 286.8326 0002748  53.1716  19.9675  1.00271145 23250
THOR 6                  
1 36033U 09058B   16063.23177369 -.00000020  00000-0  00000+0 0  9993
2 36033   0.0249 219.6144 0002322 158.5669 225.8210  1.00272568 23284
INTELSAT 14 (IS-14)     
1 36097U 09064A   16061.68076086 -.00000283  00000-0  00000+0 0  9992
2 36097   0.0163 182.5528 0002633 168.9191   8.5055  1.00268421 23010
EUTELSAT 36B            
1 36101U 09065A   16063.14072942  .00000145  00000-0  00000+0 0  9995
2 36101   0.0661 343.8441 0004408   9.4385 254.5941  1.00272553 23121
INTELSAT 15 (IS-15)     
1 36106U 09067A   16062.05920708 -.00000195  00000-0  00000+0 0  9999
2 36106   0.0488 295.3946 0002514  64.2198 267.1016  1.00273453 22909
DIRECTV 12              
1 36131U 09075A   16063.24257169 -.00000113  00000-0  00000+0 0  9992
2 36131   0.0375 304.4569 0000224 126.8532  74.6312  1.00272363 22705
BEIDOU G1               
1 36287U 10001A   16063.43813443 -.00000293  00000-0  10000-3 0  9993
2 36287   1.5809  10.6903 0002668 212.4218 236.3177  1.00271715 22492
RADUGA-1M 2             
1 36358U 10002A   16062.05920708 -.00000193  00000-0  00000+0 0  9997
2 36358   0.0332 248.2610 0002720 149.0733 229.2306  1.00273110 22313
SDO                     
1 36395U 10005A   16063.25003563  .00000000  00000-0  10000-3 0  9996
2 36395  28.3112 148.9565 0002116 169.7423 190.2774  1.00265125 22359
INTELSAT 16 (IS-16)     
1 36397U 10006A   16062.46986807 -.00000291  00000-0  00000+0 0  9990
2 36397   0.0154  96.2261 0002081 273.5036 256.1858  1.00350048 22047
GOES 15                 
1 36411U 10008A   16062.92754590  .00000078  00000-0  00000+0 0  9994
2 36411   0.0448 231.1253 0000815  29.8917  98.9564  1.00279956 22004
ECHOSTAR 14             
1 36499U 10010A   16063.18857619 -.00000010  00000-0  00000+0 0  9995
2 36499   0.0169 194.2948 0002684 146.1836 129.8895  1.00272624 21857
SES-1                   
1 36516U 10016A   16061.59364942 -.00000123  00000-0  00000-0 0  9992
2 36516   0.0572 293.1697 0002539  59.1133 280.2330  1.00272366 21362
ASTRA 3B                
1 36581U 10021A   16063.03476633  .00000127  00000-0  00000+0 0  9994
2 36581   0.0539 359.6706 0002638 352.3769 205.1723  1.00271199 20969
COMSATBW-2              
1 36582U 10021B   16062.88281832  .00000079  00000-0  00000+0 0  9998
2 36582   0.0515 273.5836 0002408  97.8908 120.6331  1.00277912 21307
BEIDOU G3               
1 36590U 10024A   16062.51014759 -.00000363  00000-0  00000+0 0  9999
2 36590   1.4957  30.8133 0003947 296.6170 127.4497  1.00268233 21094
BADR-5                  
1 36592U 10025A   16063.03322551  .00000135  00000-0  00000+0 0  9998
2 36592   0.0170 206.1450 0001023 103.2761 249.7547  1.00276265 21212
COMS 1                  
1 36744U 10032A   16062.95051211 -.00000354  00000-0  00000+0 0  9991
2 36744   0.0190 135.9094 0001137 238.9694 256.6548  1.00271390 20966
ARABSAT-5A              
1 36745U 10032B   16062.19244797  .00000144  00000-0  00000+0 0  9997
2 36745   0.0551 356.6069 0003503 336.6188 286.9434  1.00269435 20939
ECHOSTAR 15             
1 36792U 10034A   16063.13324709 -.00000292  00000-0  00000+0 0  9993
2 36792   0.0509 303.7398 0001939  58.5374 145.3719  1.00272451 20712
BEIDOU IGSO 1           
1 36828U 10036A   16063.46149177 -.00000141  00000-0  10000-3 0  9993
2 36828  54.2527 198.1551 0043012 213.6062  36.2681  1.00266401 20530
NILESAT 201             
1 36830U 10037A   16063.00329910  .00000000  00000-0  10000-3 0  9995
2 36830   0.0507 161.2957 0004754 186.8103 167.3140  1.00269856 20609
RASCOM-QAF 1R           
1 36831U 10037B   16062.86094778  .00000000  00000-0  10000-3 0  9990
2 36831   0.0238  91.9242 0004642 260.9690 121.0058  1.00269605 20616
CHINASAT 6A (ZX 6A)     
1 37150U 10042A   16062.88485348 -.00000364  00000-0  00000+0 0  9999
2 37150   0.0429 254.1355 0002097 254.5472  96.0021  1.00269425 20217
XM-5                    
1 37185U 10053A   16063.05242620 -.00000215  00000-0  00000+0 0  9998
2 37185   0.0388 306.6425 0000038 199.6912 308.5487  1.00271774 19766
BSAT-3B                 
1 37207U 10056B   16062.51014759 -.00000360  00000-0  00000+0 0  9997
2 37207   0.1066 299.0885 0004886  40.9760 114.1500  1.00271063 19593
BEIDOU G4               
1 37210U 10057A   16062.49698795 -.00000121  00000-0  00000+0 0  9992
2 37210   0.9360  49.6973 0005743 184.8741 265.0737  1.00271444 19590
SKYTERRA 1              
1 37218U 10061A   16060.74626915 -.00000124  00000-0  00000-0 0  9990
2 37218   3.8039 326.2789 0002946 158.8947 201.1407  1.00273738 19507
ZHONGXING-20A           
1 37234U 10064A   16062.90036896 -.00000347  00000-0  00000+0 0  9990
2 37234   0.0463 255.3864 0005709  94.5854 265.2389  1.00269092 19344
HYLAS 1                 
1 37237U 10065A   16063.18111900 -.00000244  00000-0  00000+0 0  9991
2 37237   0.0389 330.2321 0001551  24.0972 198.7223  1.00269563 19323
INTELSAT 17 (IS-17)     
1 37238U 10065B   16062.77259609 -.00000011  00000-0  00000+0 0  9997
2 37238   0.0404 258.5889 0003045  86.6159 159.8769  1.00272548 19234
BEIDOU IGSO 2           
1 37256U 10068A   16063.49369995 -.00000211  00000-0  10000-3 0  9997
2 37256  53.7040 316.7320 0039892 206.6880 295.9182  1.00272714 19120
EUTELSAT KA-SAT 9A      
1 37258U 10069A   16062.83745350  .00000052  00000-0  00000+0 0  9997
2 37258   0.0342 306.2917 0003422 157.0387   8.2262  1.00273694 19132
HISPASAT 1E             
1 37264U 10070A   16063.22205859 -.00000226  00000-0  00000+0 0  9999
2 37264   0.0194 142.2292 0002619 251.2931 177.8300  1.00272482 18989
KOREASAT 6              
1 37265U 10070B   16062.84250053 -.00000372  00000-0  00000+0 0  9995
2 37265   0.0188 148.7006 0001956 201.3451 230.3153  1.00268578 19009
ELEKTRO-L 1 (GOMS 2)    
1 37344U 11001A   16063.07040779 -.00000108  00000-0  00000+0 0  9993
2 37344   1.4953  79.8034 0004917 169.5191  13.3264  1.00271674 18780
BEIDOU IGSO 3           
1 37384U 11013A   16063.45714791 -.00000132  00000-0  10000-3 0  9996
2 37384  57.2494  77.8780 0027118 202.7651 165.3683  1.00293767 18003
INTELSAT NEW DAWN       
1 37392U 11016A   16062.80060539  .00000146  00000-0  00000+0 0  9999
2 37392   0.0545 265.8540 0000398  64.9949 151.1518  1.00273508 17838
YAHSAT 1A               
1 37393U 11016B   16063.07794406  .00000091  00000-0  00000+0 0  9996
2 37393   0.0095 198.2661 0001816 114.6802 288.8713  1.00269324 17879
TELSTAR 14R             
1 37602U 11021A   16063.14375899 -.00000290  00000-0  00000+0 0  9996
2 37602   0.0404 301.6120 0002386  28.2165 180.2441  1.00271782 18102
GSAT-8                  
1 37605U 11022A   16063.13440300  .00000075  00000-0  00000+0 0  9999
2 37605   0.0489 258.2272 0006445  31.3532 335.1925  1.00272288 17554
ST-2                    
1 37606U 11022B   16062.94857591 -.00000220  00000-0  00000+0 0  9995
2 37606   0.0115 182.9478 0001043 179.6065 228.0591  1.00269420 17562
CHINASAT 10 (ZX 10)     
1 37677U 11026A   16062.58483685 -.00000361  00000-0  00000+0 0  9992
2 37677   0.0291 282.0534 0003794 329.2644 230.4921  1.00269512 17286
TIANLIAN 1-02           
1 37737U 11032A   16063.29972944  .00000000  00000-0  10000-3 0  9990
2 37737   1.6370  79.7081 0002594 355.5341   5.0883  1.00271201 17044
GSAT-12                 
1 37746U 11034A   16063.07847370 -.00000174  00000-0  00000+0 0  9990
2 37746   0.0678 265.4902 0004531 207.3132 159.6999  1.00270184 17288
SES-3                   
1 37748U 11035A   16062.61174221 -.00000111  00000-0  00000+0 0  9991
2 37748   0.0601 289.0067 0002704  60.6176 288.4038  1.00271927 17009
KAZSAT-2                
1 37749U 11035B   16063.00848237 -.00000208  00000-0  00000+0 0  9998
2 37749   0.0234 253.1024 0001422 141.3504 216.3045  1.00272162 16880
BEIDOU IGSO 4           
1 37763U 11038A   16062.87246434 -.00000070  00000-0  10000-3 0  9994
2 37763  54.5627 200.4453 0035673 200.8165 168.1787  1.00259732 16960
ASTRA 1N                
1 37775U 11041A   16063.15694529  .00000110  00000-0  00000+0 0  9994
2 37775   0.0704 322.0389 0004294  63.4947 211.5262  1.00274975 16710
BSAT-3C (JCSAT-110R)    
1 37776U 11041B   16062.97858071  .00000000  00000-0  10000-3 0  9991
2 37776   0.0496 283.0851 0000187 288.9668  51.3478  1.00266344 16855
PAKSAT-1R               
1 37779U 11042A   16063.21091301  .00000144  00000-0  00000+0 0  9992
2 37779   0.0298 113.2183 0002508 222.7163 299.3095  1.00271426 16592
CHINASAT 1A (ZX 1A)     
1 37804U 11047A   16061.92321067 -.00000347  00000-0  00000+0 0  9993
2 37804   0.0134 177.5488 0003266 144.2726 300.4792  1.00269136 16386
COSMOS 2473             
1 37806U 11048A   16062.74659472 -.00000145  00000-0  00000+0 0  9997
2 37806   0.0528  84.1993 0001459  29.3498  36.0993  1.00272806 16383
